{"type": "FeatureCollection", "features": [{"type": "Feature", "properties": {"norad_id": 28890, "name": "BEIJING 1", "group": "dmc", "lat": 80.35144876015207, "lon": 57.45257646902741, "alt_km": 667.9267971174895, "timestamp": "2025-12-14T16:47:40.349563+00:00", "meta": {"OBJECT_NAME": "BEIJING 1", "OBJECT_ID": "2005-043A", "EPOCH": "2025-12-13T23:59:49.886880", "MEAN_MOTION": 14.63368408, "ECCENTRICITY": 0.00153999, "INCLINATION": 98.2649, "RA_OF_ASC_NODE": 115.5092, "ARG_OF_PERICENTER": 137.3895, "MEAN_ANOMALY": 222.8504, "EPHEMERIS_TYPE": 0, "CLASSIFICATION_TYPE": "U", "NORAD_CAT_ID": 28890, "ELEMENT_SET_NO": 999, "REV_AT_EPOCH": 7356, "BSTAR": 0.00013775637, "MEAN_MOTION_DOT": 6.64e-06, "MEAN_MOTION_DDOT": 0}, "tle": {"line1": "1 28890U 05043A   25347.99988295  .00000664  00000+0  13776-3 0  9991", "line2": "2 28890  98.2649 115.5092 0015399 137.3895 222.8504 14.63368408 73560"}}, "geometry": {"type": "Point", "coordinates": [57.45257646902741, 80.35144876015207]}}, {"type": "Feature", "properties": {"norad_id": 33320, "name": "HUANJING 1A (HJ-1A)", "group": "dmc", "lat": -71.81556257655309, "lon": 132.74897021141132, "alt_km": 635.7403993942671, "timestamp": "2025-12-14T16:47:40.349588+00:00", "meta": {"OBJECT_NAME": "HUANJING 1A (HJ-1A)", "OBJECT_ID": "2008-041A", "EPOCH": "2025-12-13T23:27:58.699872", "MEAN_MOTION": 14.83401596, "ECCENTRICITY": 0.00200182, "INCLINATION": 97.6542, "RA_OF_ASC_NODE": 336.2245, "ARG_OF_PERICENTER": 30.4833, "MEAN_ANOMALY": 329.7541, "EPHEMERIS_TYPE": 0, "CLASSIFICATION_TYPE": "U", "NORAD_CAT_ID": 33320, "ELEMENT_SET_NO": 999, "REV_AT_EPOCH": 93094, "BSTAR": 0.0003638844, "MEAN_MOTION_DOT": 2.945e-05, "MEAN_MOTION_DDOT": 0}, "tle": {"line1": "1 33320U 08041A   25347.97776273  .00002945  00000+0  36388-3 0  9993", "line2": "2 33320  97.6542 336.2245 0020018  30.4833 329.7541 14.83401596930940"}}, "geometry": {"type": "Point", "coordinates": [132.74897021141132, -71.81556257655309]}}, {"type": "Feature", "properties": {"norad_id": 33321, "name": "HUANJING 1B (HJ-1B)", "group": "dmc", "lat": 67.74545269005569, "lon": 179.75792108933865, "alt_km": 593.7555255071256, "timestamp": "2025-12-14T16:47:40.349602+00:00", "meta": {"OBJECT_NAME": "HUANJING 1B (HJ-1B)", "OBJECT_ID": "2008-041B", "EPOCH": "2025-12-14T00:06:14.437728", "MEAN_MOTION": 14.82827488, "ECCENTRICITY": 0.00381461, "INCLINATION": 97.6402, "RA_OF_ASC_NODE": 339.9437, "ARG_OF_PERICENTER": 71.7772, "MEAN_ANOMALY": 288.7588, "EPHEMERIS_TYPE": 0, "CLASSIFICATION_TYPE": "U", "NORAD_CAT_ID": 33321, "ELEMENT_SET_NO": 999, "REV_AT_EPOCH": 93096, "BSTAR": 0.00029154852, "MEAN_MOTION_DOT": 2.338e-05, "MEAN_MOTION_DDOT": 0}, "tle": {"line1": "1 33321U 08041B   25348.00433377  .00002338  00000+0  29155-3 0  9994", "line2": "2 33321  97.6402 339.9437 0038146  71.7772 288.7588 14.82827488930968"}}, "geometry": {"type": "Point", "coordinates": [179.75792108933865, 67.74545269005569]}}, {"type": "Feature", "properties": {"norad_id": 33446, "name": "YAOGAN-4", "group": "dmc", "lat": 21.14721584973911, "lon": -84.30627198806138, "alt_km": 616.7206840355921, "timestamp": "2025-12-14T16:47:40.349614+00:00", "meta": {"OBJECT_NAME": "YAOGAN-4", "OBJECT_ID": "2008-061A", "EPOCH": "2025-12-13T19:38:34.739232", "MEAN_MOTION": 14.82687573, "ECCENTRICITY": 0.00135062, "INCLINATION": 97.9179, "RA_OF_ASC_NODE": 277.9072, "ARG_OF_PERICENTER": 319.5483, "MEAN_ANOMALY": 40.4725, "EPHEMERIS_TYPE": 0, "CLASSIFICATION_TYPE": "U", "NORAD_CAT_ID": 33446, "ELEMENT_SET_NO": 999, "REV_AT_EPOCH": 91819, "BSTAR": 0.00027850382, "MEAN_MOTION_DOT": 2.196e-05, "MEAN_MOTION_DDOT": 0}, "tle": {"line1": "1 33446U 08061A   25347.81845763  .00002196  00000+0  27850-3 0  9990", "line2": "2 33446  97.9179 277.9072 0013506 319.5483  40.4725 14.82687573918197"}}, "geometry": {"type": "Point", "coordinates": [-84.30627198806138, 21.14721584973911]}}, {"type": "Feature", "properties": {"norad_id": 35681, "name": "DEIMOS-1", "group": "dmc", "lat": 79.81538487254006, "lon": 18.19994348507155, "alt_km": 636.1331013742192, "timestamp": "2025-12-14T16:47:40.349626+00:00", "meta": {"OBJECT_NAME": "DEIMOS-1", "OBJECT_ID": "2009-041A", "EPOCH": "2025-12-14T00:04:35.673024", "MEAN_MOTION": 14.74955721, "ECCENTRICITY": 0.00027169, "INCLINATION": 97.7149, "RA_OF_ASC_NODE": 148.5475, "ARG_OF_PERICENTER": 77.5805, "MEAN_ANOMALY": 282.5708, "EPHEMERIS_TYPE": 0, "CLASSIFICATION_TYPE": "U", "NORAD_CAT_ID": 35681, "ELEMENT_SET_NO": 999, "REV_AT_EPOCH": 87958, "BSTAR": 0.00016648628, "MEAN_MOTION_DOT": 1.071e-05, "MEAN_MOTION_DDOT": 0}, "tle": {"line1": "1 35681U 09041A   25348.00319066  .00001071  00000+0  16649-3 0  9991", "line2": "2 35681  97.7149 148.5475 0002716  77.5805 282.5708 14.74955721879588"}}, "geometry": {"type": "Point", "coordinates": [18.19994348507155, 79.81538487254006]}}, {"type": "Feature", "properties": {"norad_id": 35683, "name": "UK-DMC 2", "group": "dmc", "lat": 62.43087685795675, "lon": -41.11976696316085, "alt_km": 636.1213014309433, "timestamp": "2025-12-14T16:47:40.349636+00:00", "meta": {"OBJECT_NAME": "UK-DMC 2", "OBJECT_ID": "2009-041C", "EPOCH": "2025-12-13T23:59:40.469280", "MEAN_MOTION": 14.75626573, "ECCENTRICITY": 0.00014691, "INCLINATION": 97.8557, "RA_OF_ASC_NODE": 122.8664, "ARG_OF_PERICENTER": 97.0032, "MEAN_ANOMALY": 263.1345, "EPHEMERIS_TYPE": 0, "CLASSIFICATION_TYPE": "U", "NORAD_CAT_ID": 35683, "ELEMENT_SET_NO": 999, "REV_AT_EPOCH": 87925, "BSTAR": 0.00024701965, "MEAN_MOTION_DOT": 1.637e-05, "MEAN_MOTION_DDOT": 0}, "tle": {"line1": "1 35683U 09041C   25347.99977395  .00001637  00000+0  24702-3 0  9992", "line2": "2 35683  97.8557 122.8664 0001469  97.0032 263.1345 14.75626573879259"}}, "geometry": {"type": "Point", "coordinates": [-41.11976696316085, 62.43087685795675]}}, {"type": "Feature", "properties": {"norad_id": 40715, "name": "DMC3-FM1", "group": "dmc", "lat": -53.87895158188483, "lon": 25.180446851656736, "alt_km": 618.6321350591579, "timestamp": "2025-12-14T16:47:40.349647+00:00", "meta": {"OBJECT_NAME": "DMC3-FM1", "OBJECT_ID": "2015-032A", "EPOCH": "2025-12-13T23:34:29.286624", "MEAN_MOTION": 14.85444035, "ECCENTRICITY": 0.00046051, "INCLINATION": 97.6691, "RA_OF_ASC_NODE": 215.1296, "ARG_OF_PERICENTER": 316.4828, "MEAN_ANOMALY": 43.6024, "EPHEMERIS_TYPE": 0, "CLASSIFICATION_TYPE": "U", "NORAD_CAT_ID": 40715, "ELEMENT_SET_NO": 999, "REV_AT_EPOCH": 56241, "BSTAR": 0.00018047395, "MEAN_MOTION_DOT": 1.504e-05, "MEAN_MOTION_DDOT": 0}, "tle": {"line1": "1 40715U 15032A   25347.98228341  .00001504  00000+0  18047-3 0  9998", "line2": "2 40715  97.6691 215.1296 0004605 316.4828  43.6024 14.85444035562415"}}, "geometry": {"type": "Point", "coordinates": [25.180446851656736, -53.87895158188483]}}, {"type": "Feature", "properties": {"norad_id": 40716, "name": "DMC3-FM2", "group": "dmc", "lat": 64.45228621307885, "lon": 53.65255994793756, "alt_km": 609.1535703827212, "timestamp": "2025-12-14T16:47:40.349658+00:00", "meta": {"OBJECT_NAME": "DMC3-FM2", "OBJECT_ID": "2015-032B", "EPOCH": "2025-12-13T22:29:52.724256", "MEAN_MOTION": 14.85448053, "ECCENTRICITY": 0.00051601, "INCLINATION": 97.6749, "RA_OF_ASC_NODE": 216.5312, "ARG_OF_PERICENTER": 322.3212, "MEAN_ANOMALY": 37.7641, "EPHEMERIS_TYPE": 0, "CLASSIFICATION_TYPE": "U", "NORAD_CAT_ID": 40716, "ELEMENT_SET_NO": 999, "REV_AT_EPOCH": 56240, "BSTAR": 0.00024729103, "MEAN_MOTION_DOT": 2.081e-05, "MEAN_MOTION_DDOT": 0}, "tle": {"line1": "1 40716U 15032B   25347.93741579  .00002081  00000+0  24729-3 0  9992", "line2": "2 40716  97.6749 216.5312 0005160 322.3212  37.7641 14.85448053562406"}}, "geometry": {"type": "Point", "coordinates": [53.65255994793756, 64.45228621307885]}}, {"type": "Feature", "properties": {"norad_id": 40717, "name": "DMC3-FM3", "group": "dmc", "lat": -1.347456814953784, "lon": -140.9177870116739, "alt_km": 612.8788811799286, "timestamp": "2025-12-14T16:47:40.349668+00:00", "meta": {"OBJECT_NAME": "DMC3-FM3", "OBJECT_ID": "2015-032C", "EPOCH": "2025-12-13T23:01:01.737696", "MEAN_MOTION": 14.85435309, "ECCENTRICITY": 0.00045338, "INCLINATION": 97.6805, "RA_OF_ASC_NODE": 218.1858, "ARG_OF_PERICENTER": 324.5826, "MEAN_ANOMALY": 35.5088, "EPHEMERIS_TYPE": 0, "CLASSIFICATION_TYPE": "U", "NORAD_CAT_ID": 40717, "ELEMENT_SET_NO": 999, "REV_AT_EPOCH": 56241, "BSTAR": 0.00015163012, "MEAN_MOTION_DOT": 1.255e-05, "MEAN_MOTION_DDOT": 0}, "tle": {"line1": "1 40717U 15032C   25347.95904789  .00001255  00000+0  15163-3 0  9993", "line2": "2 40717  97.6805 218.1858 0004533 324.5826  35.5088 14.85435309562413"}}, "geometry": {"type": "Point", "coordinates": [-140.9177870116739, -1.347456814953784]}}]}